[{"OBJECT_NAME":"STARLINK-34802","OBJECT_ID":"2025-165M","EPOCH":"2026-03-09T17:13:32.863008","MEAN_MOTION":15.05652759,"ECCENTRICITY":6.401e-5,"INCLINATION":97.6015,"RA_OF_ASC_NODE":147.2402,"ARG_OF_PERICENTER":228.9415,"MEAN_ANOMALY":131.1756,"EPHEMERIS_TYPE":0,"CLASSIFICATION_TYPE":"U","NORAD_CAT_ID":65067,"ELEMENT_SET_NO":999,"REV_AT_EPOCH":3479,"BSTAR":0.00028862988,"MEAN_MOTION_DOT":4.107e-5,"MEAN_MOTION_DDOT":0},{"OBJECT_NAME":"SL-24 DEB","OBJECT_ID":"2007-028C","EPOCH":"2026-03-09T19:18:34.668288","MEAN_MOTION":13.26386106,"ECCENTRICITY":0.08142909,"INCLINATION":64.528,"RA_OF_ASC_NODE":235.2459,"ARG_OF_PERICENTER":100.7313,"MEAN_ANOMALY":268.6376,"EPHEMERIS_TYPE":0,"CLASSIFICATION_TYPE":"U","NORAD_CAT_ID":31791,"ELEMENT_SET_NO":999,"REV_AT_EPOCH":90482,"BSTAR":0.00011847102,"MEAN_MOTION_DOT":2.38e-6,"MEAN_MOTION_DDOT":0}]
